{"type":"FeatureCollection","features":[{"type":"Feature","id":0,"geometry":{"type":"Polygon","coordinates":[[[118.15102115819992,-8.2112820370363089],[118.15213117971018,-8.2107266544115305],[118.15322543871821,-8.2107808583156778],[118.15250437126929,-8.2101442481666123],[118.15214632429354,-8.209742078434088],[118.15131252235517,-8.2090327921295696],[118.15131247289243,-8.2090327507607981],[118.15067003229628,-8.2085070052939955],[118.14971859993354,-8.2079845720302842],[118.14921339138493,-8.2076344848434815],[118.14860095127301,-8.2073252007972961],[118.14787949983906,-8.207132393345141],[118.14728975232039,-8.2066922696324056],[118.14715623807001,-8.2065776447424774],[118.14652355331941,-8.2060344677164565],[118.14579571130321,-8.205583610595113],[118.14491335226955,-8.2049664346532154],[118.14416516039398,-8.2045687472497573],[118.14339286219102,-8.2037051561679846],[118.14286386837286,-8.2029024707723632],[118.14248397315691,-8.2024379043856417],[118.14199565297714,-8.2020499467475396],[118.14140002658996,-8.2013204481800059],[118.141283142603,-8.201088718969169],[118.14104604713759,-8.2006186622213519],[118.14034447341886,-8.199467479640365],[118.14001276927399,-8.1989495969463064],[118.1396008662871,-8.1984018972296955],[118.13883707656989,-8.1979750735906638],[118.13864469179917,-8.196959237178989],[118.13841372791137,-8.195936064997337],[118.13797079471659,-8.1951771433104454],[118.13755305063295,-8.1943795498761958],[118.13730751592924,-8.1935422846486201],[118.13685682608171,-8.192501634143067],[118.13654063344359,-8.1917008418203583],[118.1362693457538,-8.1911117004445924],[118.13586162011768,-8.1902651668038935],[118.13588756465947,-8.1894785945613702],[118.13556383840046,-8.1885894285592276],[118.13533882982324,-8.1879680680717719],[118.13502829032336,-8.1870903135670705],[118.13481766999951,-8.18669653371796],[118.13470332210068,-8.1864316294161146],[118.13441521618951,-8.1858493876391165],[118.13398602013888,-8.1852099237988245],[118.13352764018852,-8.1847167158037486],[118.13320573235887,-8.1840823583141322],[118.13274461397295,-8.1830463860817364],[118.13233589188791,-8.1829243202011597],[118.13181221396258,-8.1826451769332511],[118.13139763819062,-8.1826515926967431],[118.13031922874961,-8.1826346530667138],[118.12994244428853,-8.1826287337289614],[118.12951389664919,-8.1826926422515953],[118.12905496811243,-8.182385450028395],[118.12882106524012,-8.1822849399979489],[118.12847083416182,-8.1819458272380512],[118.12788464975699,-8.1816516329165019],[118.12727026710921,-8.1810481833269399],[118.12712013518616,-8.1806503142605056],[118.12679049228745,-8.1802305610914985],[118.12659047407125,-8.1799582319867454],[118.12593600144544,-8.1793732859482624],[118.12530393093188,-8.1787394275823981],[118.1252989603788,-8.178734442640339],[118.12506420944578,-8.1780553195972026],[118.12490430009359,-8.1773126099889186],[118.1246330276922,-8.1755069673725966],[118.12459743702219,-8.1746769632711089],[118.12493647333962,-8.1737808563014447],[118.12515358227211,-8.172872264043626],[118.12517799796628,-8.1718873274381281],[118.12519717331112,-8.1710467976715258],[118.12479024537357,-8.1703254388678559],[118.12433700774692,-8.1698562409727096],[118.123592191027,-8.169712931306595],[118.12262240889719,-8.169442372967076],[118.12162881991422,-8.1688043120692537],[118.12151973844539,-8.1683687838921575],[118.12153765024254,-8.1678924112057452],[118.12154346435956,-8.1677377772765016],[118.12152860935807,-8.1675685977125401],[118.12144293094673,-8.1665928027155665],[118.1213969594022,-8.1658937264143088],[118.121384548758,-8.1647702762271628],[118.12105955535422,-8.1638587009182331],[118.12034914759511,-8.1632425681898386],[118.119723914627,-8.1629258368577737],[118.11899288001746,-8.1624756758117236],[118.11825915643512,-8.1620407870526641],[118.11756477099743,-8.1613738768028874],[118.11748069877535,-8.1612931311730108],[118.11679159325763,-8.1606079269142278],[118.11652905057532,-8.160091389605844],[118.1164093678982,-8.1598559201145768],[118.11543946795723,-8.1589568858515289],[118.11444844833738,-8.158174445993831],[118.11365473637703,-8.1572585260600459],[118.11321422685525,-8.1565407420615088],[118.11271111912288,-8.1553071069374088],[118.11239707136779,-8.1542336779417646],[118.11193848367429,-8.1537180993107707],[118.11121529834735,-8.1533538163254828],[118.11078548356339,-8.1530317852885279],[118.10939507232477,-8.1509293610011504],[118.10840228193979,-8.1499342036005888],[118.10721340787255,-8.1489000578912361],[118.10688171182164,-8.1481180640973285],[118.10652648141208,-8.1472921258308624],[118.10599060508251,-8.1465406856041227],[118.10548986436584,-8.1461162109942471],[118.10476747403982,-8.1453002965713583],[118.10521728524965,-8.1445492178720453],[118.10426077801263,-8.1425725988462432],[118.1037810166806,-8.1418327580752266],[118.10314012022047,-8.1415330859831041],[118.10255229185496,-8.1413172432961076],[118.10216632981235,-8.1411755227321745],[118.10123095934148,-8.1411265375595647],[118.09987400378236,-8.141382070925772],[118.09860642194894,-8.1413695307791176],[118.09625153278206,-8.1404957773581277],[118.09614521672847,-8.1404563303952902],[118.09545263263294,-8.140669183735783],[118.09525563613887,-8.1407658392720315],[118.09437151443387,-8.1411996299588534],[118.09244348667767,-8.1401225748968482],[118.09178265494575,-8.1395903291302716],[118.09099765022144,-8.1389580706583082],[118.08977765421548,-8.1375133079927178],[118.08891788165499,-8.1369159027466402],[118.08775094295173,-8.1364790876397084],[118.08715424457284,-8.1359368198282596],[118.08622877833557,-8.1353221745786186],[118.08405221214002,-8.1342729328494574],[118.08362629771555,-8.1338910402392273],[118.08335019685433,-8.1336294121675703],[118.08296738243894,-8.1330977266786082],[118.08229536493934,-8.1325314487672902],[118.08154554798874,-8.1319740687482156],[118.08049501483322,-8.1316409706541908],[118.07821980739821,-8.1311859622622329],[118.07621637238788,-8.130625987699144],[118.07495466492595,-8.1307827269412716],[118.07482276495875,-8.1307991125888766],[118.07251680700504,-8.1307917831142547],[118.07049377486796,-8.1296676413485383],[118.07005874041873,-8.1293755181655545],[118.06810273475355,-8.1288096521436106],[118.06716326966932,-8.128397858873992],[118.06594432227281,-8.1280879264165868],[118.06488141174793,-8.1277454124207722],[118.06380030074342,-8.1271079810483755],[118.06260776733473,-8.1267900095512644],[118.06149610995773,-8.1271288983799064],[118.06028775837342,-8.1270049637080355],[118.05880039122519,-8.1269128281643965],[118.05800001618786,-8.1268200927730163],[118.05597069329303,-8.1262689531495731],[118.05541339421289,-8.1261823556311601],[118.05497332086212,-8.1261104494376468],[118.0544124029101,-8.1259415045966605],[118.05376719240212,-8.1257558035874187],[118.05153186989993,-8.1251640227013748],[118.0504366629217,-8.1249146865635034],[118.04907821898473,-8.1244680166855083],[118.0479218796911,-8.1239037280744864],[118.04714724504937,-8.1235894240126143],[118.04676676257613,-8.1234350463901652],[118.04520983466624,-8.1230885016329371],[118.04344414892842,-8.1223661086089542],[118.04297686029396,-8.1222898901662006],[118.04250610837028,-8.1222010092690766],[118.04198664556726,-8.1222106868736379],[118.04028433415489,-8.1220623428028489],[118.0395532491833,-8.1217109587935798],[118.03836880877373,-8.1209584330851463],[118.03710694393033,-8.1203810566403867],[118.03592120220185,-8.1200450420450387],[118.03494590632862,-8.1200269566786538],[118.03355671367162,-8.1197863961252281],[118.03224310003908,-8.1195362326109812],[118.03146919204973,-8.1191759606020444],[118.0301349596608,-8.1190111472466224],[118.02849244596962,-8.1186684866613028],[118.02763250613532,-8.1184227604020478],[118.02662492819799,-8.1180609415591878],[118.0255245321316,-8.1176980264427172],[118.02464808614049,-8.1173267026651423],[118.02299066798503,-8.1164955474314997],[118.02182778702297,-8.1158182599046373],[118.0206447306698,-8.1156066548231784],[118.01961602765766,-8.1156159061491184],[118.01858551790737,-8.1155315623316753],[118.01776710336937,-8.1154634710622329],[118.01634348196615,-8.1153034537912827],[118.01506600938899,-8.1150826450479538],[118.01414854262123,-8.1148084237696505],[118.01328451896541,-8.1145211353420414],[118.01258582487594,-8.1144285330503276],[118.01201421218616,-8.114319480359713],[118.01103318223568,-8.1143242683501704],[118.01043712777141,-8.1143422979585615],[118.00976626679984,-8.1142958281898263],[118.009285042271,-8.1139517430784167],[118.00793848467346,-8.1135429256654028],[118.00581696418158,-8.1157381123239762],[118.00516745041772,-8.1165941580937808],[118.00513536170776,-8.1174828591465413],[118.00506923185969,-8.1184741764420298],[118.00507212228069,-8.1196362120414776],[118.00507406391694,-8.1204173820564787],[118.00507433101563,-8.120524828557965],[118.00445902116701,-8.1213466128558007],[118.00384430307226,-8.1224076402003789],[118.00398310533613,-8.1230566746257846],[118.00402003599595,-8.1241160939824759],[118.00398760734241,-8.1248680836949987],[118.00364709523728,-8.1258600781800503],[118.00347798402196,-8.1268174721485078],[118.00337797941029,-8.1279797622561283],[118.00351729338844,-8.1288338627924706],[118.0027995003968,-8.129826788075718],[118.00235557794758,-8.1306139709578762],[118.00194612291546,-8.131469424074572],[118.00160602539781,-8.1326323059360561],[118.0019853432491,-8.1334516359841018],[118.00178218370104,-8.1345116479940245],[118.00140702161683,-8.1353670156751701],[118.00165008138617,-8.1365626382550982],[118.00100035987884,-8.1373503283548416],[118.00069353817639,-8.138102995256995],[118.00069548790657,-8.1388890773688942],[118.00025087567758,-8.1394028393694988],[117.99949875916057,-8.1403958455917333],[117.99888324156846,-8.1411492724209289],[117.99850688428535,-8.1415261531094512],[117.99835763999317,-8.1415801052375549],[117.99765017121865,-8.1418358589376059],[117.99727541832611,-8.142862113995248],[117.99693420205199,-8.1435806849006553],[117.99624973883455,-8.1441975658648875],[117.99587430515523,-8.144950399141571],[117.9960822140231,-8.145804333303257],[117.99659915602625,-8.1467942188780356],[117.99636159561136,-8.1478201357905977],[117.99598582198814,-8.1484362586263046],[117.99537037184528,-8.1492238587939525],[117.99502990830378,-8.1502500284160551],[117.99462058996835,-8.1511738318067746],[117.99397117063323,-8.1520982251529475],[117.99376773319443,-8.1530557018591043],[117.99380338411891,-8.1536024590861871],[117.99377094017679,-8.1543544496980829],[117.99312100822806,-8.1550737769331985],[117.9928483769512,-8.1557921778666014],[117.99240567668072,-8.1570920201804604],[117.99206385336424,-8.1575713462405606],[117.99203123765163,-8.1582549820816386],[117.99189656417524,-8.159280646284742],[117.99169345768712,-8.1603748316331277],[117.99180006871825,-8.1618783946721649],[117.99159772035853,-8.1632801796365673],[117.99132558820543,-8.1642036466808978],[117.99163733189744,-8.1654332852178246],[117.99139874175853,-8.166049069009258],[117.9914022841881,-8.1674845281883144],[117.99147274157383,-8.168236266990105],[117.99144063307881,-8.1691249680427518],[117.99110031792543,-8.170219492435594],[117.99103458198044,-8.171381698006833],[117.99127697085567,-8.1723039042017795],[117.99145118032789,-8.1733971659463602],[117.99100846207101,-8.1746970073609777],[117.9900845021981,-8.1755878928668686],[117.9892302379851,-8.1769229175585494],[117.98926664613896,-8.1777772744015937],[117.98926883688739,-8.1786658918173281],[117.98789851200696,-8.1793869772271286],[117.98707626455814,-8.1797991203330849],[117.98639147758468,-8.1803134587990414],[117.98457470585799,-8.1808305581836933],[117.98426799567154,-8.1816515726618437],[117.98372133377266,-8.182541529168132],[117.98200904618068,-8.1837077421185462],[117.98086078100027,-8.1840693990834623],[117.98000579912843,-8.1851309894036071],[117.97863501739219,-8.1856811586585039],[117.97658033541414,-8.1871216063769872],[117.97517565193482,-8.1878427367527742],[117.97346198568232,-8.188462074664919],[117.97281130190026,-8.1889079567367276],[117.97123459070382,-8.189424422998675],[117.97006902076885,-8.1897348267007768],[117.96845791679948,-8.190217187972797],[117.96766959717434,-8.1904925019273378],[117.96664098679219,-8.1907000348786028],[117.96575057702763,-8.1913173708999203],[117.96434758517296,-8.1927562016373443],[117.96366340074553,-8.1935439322066461],[117.96205292810032,-8.19429969097785],[117.96126639992451,-8.1953269083101148],[117.96078794800542,-8.1960799646185478],[117.95886839366165,-8.1966997378025983],[117.95791033059743,-8.1977273571317806],[117.95640429442267,-8.199132233066047],[117.95554937730198,-8.2002621367880746],[117.95469527226921,-8.2017338188605873],[117.95342795573572,-8.2025570933350824],[117.95171605485211,-8.2039624423128412],[117.95113287418279,-8.2039638191748239],[117.95013957568109,-8.2046155470698086],[117.95007250784001,-8.2052650896121175],[117.94815410462843,-8.2063974880535913],[117.94750392806397,-8.2070825807963423],[117.94616748424222,-8.2077009285549103],[117.94500248087992,-8.2082846937835203],[117.94318639713468,-8.2091775829790077],[117.94191863004085,-8.2098299359027518],[117.94095936458302,-8.210379031367161],[117.94082206238839,-8.2103451727913903],[117.93979426409406,-8.2109286025728334],[117.93880157083584,-8.2118537306650925],[117.93406874917368,-8.2124457696564779],[117.93303933839478,-8.2123456229521157],[117.93218169363037,-8.2123476095544525],[117.93036404686336,-8.2125910632269612],[117.92933463518534,-8.2124909048313341],[117.928582846921,-8.2137572384057709],[117.9275890079266,-8.2142038480291184],[117.92717828844741,-8.2146149344315482],[117.92587569061082,-8.2150622518213456],[117.92501859263403,-8.2153034706785775],[117.92423105721765,-8.215954669772092],[117.92368302834927,-8.2163318904043159],[117.92269249256469,-8.2182139726965655],[117.92187434962158,-8.2204716217679081],[117.92095138619754,-8.221909229427304],[117.92050792060421,-8.2230039516709912],[117.91865622100784,-8.223384149958525],[117.91793585595506,-8.2234199726535788],[117.91690735888756,-8.2237299257953964],[117.91598130809098,-8.2238345727072968],[117.91563918080375,-8.2242454927351734],[117.91505784374453,-8.2250670989673793],[117.91114824979194,-8.2256911933937342],[117.91004995364267,-8.2254886103110607],[117.90871283532931,-8.2258675981110496],[117.90840562691824,-8.2265518616790168],[117.90792711564394,-8.2273390490578393],[117.90772345067671,-8.2282965068781611],[117.90751916158013,-8.2289805393203803],[117.90714318111294,-8.229596600102985],[117.90683550235667,-8.2300757939626727],[117.90645881772049,-8.2303842506325964],[117.90649491290992,-8.2311702751879974],[117.90653100809972,-8.2319562988440591],[117.90639579862727,-8.2328452454116192],[117.90605489621659,-8.233803012598905],[117.90564429005212,-8.2342824375843975],[117.9052679120847,-8.2347276073930367],[117.90489145677533,-8.2351385975680849],[117.9044810799379,-8.2357205578574071],[117.90427771534452,-8.2368147279172508],[117.90414280894356,-8.2378403867244216],[117.90387167773578,-8.2393106730490917],[117.90370145585757,-8.2398920919463894],[117.90304998426937,-8.2400644506138807],[117.90288022464279,-8.2408509392193441],[117.90260769408985,-8.2417060146208261],[117.90267739514582,-8.2421843568225182],[117.90233609163749,-8.2429712312372239],[117.90189209184678,-8.2438608711822194],[117.90158447514365,-8.2443742410783418],[117.90059245907491,-8.2456752543095035],[117.89994252173007,-8.2465311768722831],[117.89949766398614,-8.2470448534372078],[117.89922736375206,-8.2488911004438705],[117.89922875410389,-8.249506311367151],[117.89919583621896,-8.2501215987327274],[117.89912922613291,-8.2510103897176439],[117.89865028498276,-8.251626678028682],[117.89810164277664,-8.2517646223394046],[117.89786224864395,-8.2521069438803352],[117.89755423444046,-8.2524494192052824],[117.89708836943284,-8.2532666466383979],[117.89670762975334,-8.2535207347940425],[117.89623320319981,-8.2545030867479969],[117.89591694221328,-8.2551685391966902],[117.8956963636963,-8.255992050192912],[117.89541216174189,-8.2567840480453452],[117.89541401704342,-8.257607061716504],[117.89538423689316,-8.2584934551088054],[117.89535445764227,-8.2593798476017906],[117.89522892307639,-8.2600765290085825],[117.89519957190284,-8.2611528466265387],[117.89507431972412,-8.2619761453827287],[117.89501283577385,-8.2628942632595752],[117.89469685177846,-8.2636863330577697],[117.89447541440906,-8.2641299911061292],[117.89422283891292,-8.2648586101366277],[117.89346509084136,-8.2650636492679084],[117.89339713896698,-8.2650820359071506],[117.89339040574271,-8.2652748163796446],[117.89336728597154,-8.2659367740627676],[117.89311086227667,-8.2660652080428427],[117.89279594217921,-8.266222941035835],[117.89279757984447,-8.2669509916947739],[117.89260816373587,-8.2675053679782309],[117.89257795281037,-8.2682018353463107],[117.89242020632764,-8.2687086599766566],[117.89166075494006,-8.2701348075752286],[117.89131255722884,-8.2707370196976608],[117.89070999527009,-8.2712764906174741],[117.8902974582611,-8.2715306462222298],[117.88995010771134,-8.2725127103931815],[117.88915815482517,-8.273622381167911],[117.8890957346805,-8.2741289926587935],[117.88887520742503,-8.2749841570931171],[117.88884463587135,-8.2755223518749919],[117.88897323712537,-8.2761868123714031],[117.88897444401539,-8.2767249361068664],[117.88891287642822,-8.277611399646279],[117.88878711343466,-8.278213116242231],[117.88834321526735,-8.2786572671191152],[117.88793166121729,-8.2793545816485867],[117.88831498464901,-8.2802400568330601],[117.8886041823372,-8.2816638679930676],[117.88876477697306,-8.2824232195558167],[117.88835258260575,-8.2828356459482446],[117.88816318987951,-8.2834058494003724],[117.88813311475155,-8.2841656254432259],[117.8881345347811,-8.2847987130900762],[117.88769112584488,-8.2854644443285625],[117.88794727075003,-8.2863185466635567],[117.88817106973909,-8.2869194853459494],[117.88823590456356,-8.2874891222251144],[117.88810999767827,-8.2880275301462891],[117.88811148965372,-8.2886922712312909],[117.88836706978462,-8.2892931388672082],[117.88833649913022,-8.2898313336490279],[117.88840097962155,-8.2902426988414319],[117.88852951612444,-8.2908755032017947],[117.88868954868383,-8.291381619166323],[117.88907253307106,-8.2921088190666925],[117.88926484319813,-8.2928364443464009],[117.88942523278843,-8.2935008319976724],[117.88964896882487,-8.2940701136447412],[117.88984092641785,-8.2946394672375785],[117.88993775912036,-8.295303995183188],[117.8902885432817,-8.2958413383070706],[117.89035324230849,-8.2963476656121813],[117.89044986277112,-8.2969172314450343],[117.89054648503236,-8.2974867963784558],[117.89077036675906,-8.2981193858009892],[117.89096247094143,-8.298752046269902],[117.891123508943,-8.2997013211589774],[117.89182380382569,-8.3002062257367086],[117.89217459518146,-8.3007435661626268],[117.89252488561509,-8.301059327126211],[117.8927167811546,-8.3015970227843443],[117.89281390793553,-8.3023881671801423],[117.89284733303805,-8.3031161449939592],[117.89332546299977,-8.3037481633469952],[117.89332667978249,-8.3042862861830784],[117.89326469311128,-8.3049828227989337],[117.89317092799615,-8.3056794313606037],[117.89333133197545,-8.3063438154147153],[117.89342810442349,-8.3069766881236049],[117.89323878274377,-8.3075785468124632],[117.89346324992913,-8.3084643682359438],[117.89378241572591,-8.3090650856850701],[117.89359345197636,-8.3098252169601139],[117.89346790571936,-8.3105218965681544],[117.89356582840037,-8.3116612377758656],[117.89388585484845,-8.3126418072735575],[117.89385622578425,-8.3135915066426982],[117.8940489181233,-8.3144773982132936],[117.89401914516746,-8.315363789807007],[117.89414906662614,-8.3165980211816777],[117.89421427916567,-8.3173259261505468],[117.89415322778926,-8.3184339682529203],[117.89431443126614,-8.3194465473201902],[117.89422167069358,-8.3205863157058353],[117.8943503762689,-8.3212824242443784],[117.89422547572532,-8.322263991989578],[117.8943225440504,-8.3230234802493293],[117.89400673901993,-8.3239105148583068],[117.89384969760556,-8.3247338828622919],[117.89372386266633,-8.3253039460202576],[117.89356603074795,-8.3257791172123969],[117.8932498641899,-8.3265078801345034],[117.89309421762425,-8.3267727727451852],[117.8927555680152,-8.3273491185669251],[117.89234258314387,-8.328369346368163],[117.89182550444366,-8.3292716271837364],[117.89142684577244,-8.3300702350531903],[117.89113180968548,-8.3307799737166803],[117.8906301930292,-8.3319628960707011],[117.89033619026304,-8.3331305803119982],[117.88993802621894,-8.3341507730397133],[117.88965825072775,-8.3350525196580012],[117.88951206502998,-8.3359982835938773],[117.88914299405405,-8.3367672785869846],[117.88874452424047,-8.3376545200400187],[117.88836095079738,-8.3385712709473481],[117.88763786529536,-8.3402126326068338],[117.88697247220192,-8.3411300148382601],[117.8867074509883,-8.3420021827544648],[117.88647319558163,-8.3433617733271053],[117.88623813887911,-8.3443668259682156],[117.88584201989352,-8.346302903556083],[117.88557646268372,-8.3469387143501361],[117.88511954413184,-8.3482249391295245],[117.8846321907231,-8.3491714656904659],[117.88462702591666,-8.3491841919968124],[117.8842781663045,-8.350043830558203],[117.88386474166452,-8.3508867839977992],[117.88357011207108,-8.3517885620924037],[117.88314185131549,-8.3526315479074924],[117.88269824093116,-8.3532449808711249],[117.88288512275041,-8.35398243933804],[117.88344251536,-8.3547454241618784],[117.88423728492285,-8.3551652933435392],[117.88511191158567,-8.3557958017348142],[117.88598790971447,-8.3570324172122241],[117.88641288974316,-8.3577429877485674],[117.88686486741985,-8.358690670837742],[117.88718376791678,-8.3592960665601534],[117.88750350478313,-8.3602703983601092],[117.88816705696435,-8.3611648982413804],[117.88856636134869,-8.362218106880098],[117.88896548676804,-8.3631922588156797],[117.88944417790663,-8.3642452875898794],[117.8896046790129,-8.3650091519507477],[117.8900838530874,-8.3662729997990404],[117.89011204863232,-8.3670371618355333],[117.89019400744769,-8.3681701412389806],[117.89022202402727,-8.3688552447736075],[117.89038355395793,-8.3694782186447512],[117.89078277920204,-8.3701093367764141],[117.8911010285898,-8.3709825739865664],[117.89143602785043,-8.3718042827413761],[117.89145109059541,-8.3722096161807205],[117.89159305937234,-8.3728565623803792],[117.89208855794072,-8.3736750767433215],[117.89276141990364,-8.3745096691858354],[117.89332398091722,-8.37509945267748],[117.89423003798605,-8.3756485085717642],[117.89474941175602,-8.375854095390082],[117.89540259115688,-8.3762981293550638],[117.89595495655601,-8.3765694089510045],[117.89673504828399,-8.376822732682859],[117.89724221285792,-8.3771564647989329],[117.89790073872813,-8.3775183151180954],[117.89892190362309,-8.3777356228006852],[117.89947499297661,-8.3781738273601754],[117.9001934406749,-8.3785140372929234],[117.90123005412386,-8.3789898721848264],[117.90184185122052,-8.379206234679879],[117.90216463319132,-8.3794975556675659],[117.90348484065305,-8.3796887452393722],[117.9041340009835,-8.3797188950109653],[117.90496469036837,-8.3796937931339244],[117.90633198992941,-8.3799361190565396],[117.90696786817261,-8.380568319072605],[117.90772480415649,-8.3807821679625985],[117.90864218908598,-8.3807129489433763],[117.90966202478273,-8.3807792100923848],[117.91053758404233,-8.3812360252222788],[117.91194195635626,-8.3813307867862967],[117.91258928476771,-8.3812644698792873],[117.91328297862674,-8.3811445488817142],[117.91426456525755,-8.3812043645896814],[117.91520362744554,-8.3812165063366724],[117.91589223204096,-8.3811694699949086],[117.91631203737087,-8.3811147003830246],[117.91694832300676,-8.3808401310671492],[117.91741056104865,-8.3806467849211135],[117.91810827127983,-8.38038965256038],[117.91874034898809,-8.3803122649989614],[117.91958073396381,-8.3803795873480471],[117.9202544098132,-8.3804736240584869],[117.92062855116683,-8.3805357078566054],[117.921182868095,-8.3806276887167446],[117.92236199890715,-8.3806972980418131],[117.92271040705988,-8.3807462049733168],[117.92317053439287,-8.3808107951820077],[117.92384531730771,-8.3809460640095512],[117.92456199603942,-8.3812013059954342],[117.92542118493986,-8.3816612822423675],[117.92568252432909,-8.3817940896254814],[117.92613977383154,-8.3824423119630733],[117.9267974624331,-8.3829508363119221],[117.92730335986232,-8.383695878761726],[117.92769523674588,-8.3846441778864556],[117.92819807468153,-8.3849551301750012],[117.92902603282516,-8.3855257895834239],[117.92921773231251,-8.3862194744491507],[117.93002283688452,-8.3869705450545133],[117.93065876279184,-8.3875841623790848],[117.9313932687844,-8.3883050067705671],[117.93181746820164,-8.389017676324606],[117.93230494481737,-8.3898947356533924],[117.93297725999264,-8.3910667159560717],[117.9331908336902,-8.3917619998163584],[117.93366420443954,-8.3923424321574736],[117.93414298281242,-8.3927268527619958],[117.93483252719955,-8.3934159070183849],[117.93571003888734,-8.3941387542000729],[117.93633892939816,-8.3948167890634924],[117.9371691646253,-8.3956835475575531],[117.93808387497097,-8.3964201651584229],[117.93857427258467,-8.3967752031130161],[117.93930421721586,-8.3973078949433049],[117.93996010717331,-8.3978180326760068],[117.94060327891826,-8.3983301183402492],[117.9416493208596,-8.3989756274231642],[117.94254402488707,-8.3995562234409231],[117.94308576119897,-8.4001129262704239],[117.94360546322163,-8.4005754314109193],[117.94448510180608,-8.4008204364138752],[117.94549359165602,-8.4011619944304332],[117.94642391423247,-8.4014594559890803],[117.94766110527598,-8.4017876878514812],[117.94872309759296,-8.4021792940390529],[117.94932226371168,-8.402567589822354],[117.95063448789142,-8.4030330753160971],[117.95163079732356,-8.4034631868765484],[117.95241017678836,-8.4035708456179847],[117.95296957218807,-8.4037755268190608],[117.95401737140469,-8.4041565695699241],[117.95504553122636,-8.4046470022572706],[117.95542319432502,-8.4038180836375904],[117.95592061744264,-8.4033086482754076],[117.95632105317429,-8.4027646096989201],[117.9566523562213,-8.4022067116703205],[117.95701841356913,-8.4016330647140673],[117.95726693042458,-8.4009566000669267],[117.95742231258987,-8.4002648145694341],[117.95764921244131,-8.3998904861568899],[117.95778187233553,-8.3996716298418086],[117.95807851281315,-8.3992954488258551],[117.95843619027802,-8.3989207211143349],[117.95877774199924,-8.3985261246808758],[117.95915711021257,-8.3975127173379178],[117.95961287133709,-8.3970187817913065],[117.95984615367716,-8.3965887250894831],[117.9602171761818,-8.3960430740285616],[117.96046371093153,-8.3954877948258435],[117.96047158809345,-8.395075072556498],[117.96070025601217,-8.394464207157343],[117.96096016907678,-8.3939429556028333],[117.96109339914108,-8.3934714581412297],[117.96131857319379,-8.3928991376849371],[117.96130431264407,-8.3924888300953171],[117.96129145503664,-8.3918692106954555],[117.96122220903781,-8.3915206730405298],[117.96090643278579,-8.3911066692373346],[117.96072054561681,-8.3904326723299008],[117.96068912600252,-8.3898133865783908],[117.9611452297687,-8.3896331561451269],[117.96206417502174,-8.3897560143284924],[117.96289651106521,-8.3899105448357503],[117.96370586493389,-8.3903325849806762],[117.96441232556845,-8.3904622959980699],[117.96521170685493,-8.3909526117735709],[117.96605423491506,-8.3913936393049031],[117.96692014984524,-8.3916214088009209],[117.96791315786595,-8.3916312536793427],[117.96886551832915,-8.3914301248003582],[117.96974921375532,-8.3910488401318197],[117.97057148098918,-8.3916057354162543],[117.97113288097786,-8.391561601186817],[117.97184203508186,-8.3918015214229609],[117.97282513796983,-8.3919409262327349],[117.97364686740912,-8.392155594405093],[117.97448977408396,-8.3923219671850084],[117.97511442069414,-8.3926086575634713],[117.97606273510723,-8.3927344943014042],[117.97690216230501,-8.392805227778986],[117.97770203911786,-8.3929655319337328],[117.97845738240244,-8.3931169103171399],[117.97983077936715,-8.3935443320052059],[117.98091705697664,-8.3936282999060321],[117.98165006020226,-8.3936044247043959],[117.98205109488218,-8.3941594296138593],[117.98285699895155,-8.3948389663451088],[117.98341186986205,-8.3954984697784969],[117.98387876189554,-8.3963518436626146],[117.98440885738295,-8.396631058876201],[117.98545891479716,-8.3970394877820169],[117.98651551837656,-8.3972299066347702],[117.98757569766053,-8.3971465241926992],[117.98842863986999,-8.3975299429524775],[117.98898970531081,-8.3980730956967609],[117.98969186358885,-8.39801382228001],[117.99028286026591,-8.3980601886267401],[117.9911162772944,-8.3982600917298011],[117.99214921971077,-8.3982089697681221],[117.99413670434546,-8.3982837277117728],[117.99508267782336,-8.3983625101216166],[117.99590442434976,-8.3988673706326082],[117.99776423673019,-8.3991400900430317],[117.99835763999317,-8.3994046139317255],[117.99863925100077,-8.399530149396762],[117.99935580023021,-8.4003528869760657],[117.99995161277683,-8.4007576241648909],[118.00176788987643,-8.400500299349293],[118.00267015270549,-8.400977128891272],[118.00336550941086,-8.4014236521797425],[118.00433581944264,-8.4018009924218351],[118.00509905877459,-8.4023143641165863],[118.0053848534284,-8.4022767256902799],[118.00524062915177,-8.4020060180631582],[118.00505691024841,-8.4017859296768016],[118.00515340570517,-8.4014918882399545],[118.00527118901425,-8.4012889921931961],[118.00535038421299,-8.4010341549022112],[118.00551968608465,-8.4007029013177448],[118.00567734982987,-8.4006380242253123],[118.00620287766071,-8.400353901411334],[118.00711736407516,-8.4004800160398645],[118.00795549534996,-8.4009156386457544],[118.00921901404638,-8.4019703086826745],[118.01004572662917,-8.402420263784105],[118.01091605273369,-8.4026209780756105],[118.01169444474306,-8.403114436082312],[118.01244424640504,-8.4037888916439609],[118.01329486476641,-8.4040412108331637],[118.0141947309023,-8.4043324895526972],[118.01468869972393,-8.4046129008646648],[118.01573783623222,-8.4047370010117604],[118.01720547225489,-8.4050062490391024],[118.01812349930013,-8.405169190905319],[118.01902571356584,-8.4055269699935575],[118.01998176664539,-8.405654320290525],[118.02097512989837,-8.4059372991669647],[118.02144923629339,-8.4059620341204759],[118.02258318336737,-8.4057107689367214],[118.02324840469022,-8.405637484082547],[118.02438237244871,-8.4059099957496528],[118.02551783128297,-8.4062178984371556],[118.02645194360241,-8.4065316494159745],[118.02744915325592,-8.4067562308152883],[118.02832233830532,-8.4071501311735837],[118.02885555444038,-8.4073926072829241],[118.03012717692775,-8.4078258233030212],[118.03051311019192,-8.4079558418885583],[118.03146766410146,-8.4078053808135582],[118.0327101980174,-8.4079705107304257],[118.03387099614962,-8.4076403786005471],[118.03428416538203,-8.407573680380942],[118.03496307528576,-8.4074640818018374],[118.03582717358529,-8.407193926358504],[118.03652085935039,-8.4071111563547412],[118.03720732176068,-8.4076225279572459],[118.03811424937328,-8.4077847989292902],[118.03885961917616,-8.4076912262689838],[118.04021518708134,-8.4078477038084394],[118.04085155905227,-8.4079304917987052],[118.0430201860329,-8.4076229083704597],[118.04369423779895,-8.4077050209698374],[118.04454059067574,-8.4077941635697542],[118.045250758316,-8.4079761323924984],[118.04594511137782,-8.408634818342076],[118.04695726506576,-8.4084370223505989],[118.04728589173055,-8.4078661003401383],[118.04801380839058,-8.4075582695984341],[118.04895253423216,-8.406984564186196],[118.05038453371937,-8.4066346793469435],[118.0514504021145,-8.4065655322734845],[118.05239317490519,-8.4064782341831048],[118.05321113438652,-8.406210915201477],[118.054243976978,-8.4062227008168904],[118.05550381924594,-8.4061330087313362],[118.05628321309986,-8.4058797956160518],[118.05708177510394,-8.4053902946262689],[118.05817282091903,-8.4052842447720177],[118.0595534277486,-8.4048485771999637],[118.06071931334579,-8.4046809741475315],[118.06145693728797,-8.4045934566227007],[118.06284882161594,-8.4044099814353697],[118.06363854868015,-8.4040424033341949],[118.06443473467526,-8.4044290650492748],[118.0654417532345,-8.4044188802270074],[118.06648987530752,-8.4048899127392449],[118.06801951958528,-8.4046088332310127],[118.0690686201208,-8.4050416085833071],[118.07007782403251,-8.4049672490392595],[118.07098062735417,-8.4053021376834689],[118.07190411508303,-8.4057379608381702],[118.07256485238611,-8.4061117145839113],[118.07341171697739,-8.406408712092345],[118.07427121164734,-8.4068554206410866],[118.07512746875783,-8.4072573780255198],[118.07569709214715,-8.4079106041909242],[118.07575661017961,-8.4079788582376498],[118.0765542144055,-8.4086588347373645],[118.07723562982063,-8.4092397356251869],[118.07779607113196,-8.4096817191359516],[118.07834955079136,-8.4102404580306711],[118.07908677993099,-8.4108398687648673],[118.07975188164401,-8.4113253695700152],[118.08028885334797,-8.4119844826976724],[118.08119119981416,-8.4125039221182263],[118.08214393709306,-8.4131864158204017],[118.08373452932517,-8.4142127581121624],[118.08451047697713,-8.4146962255502498],[118.08540709476176,-8.4152936541786936],[118.08606160066243,-8.4159183826271189],[118.08680682657382,-8.4163390306217156],[118.08753912383169,-8.4164641793782931],[118.08839154443446,-8.4166902932224179],[118.0892136309044,-8.417108443799572],[118.08984814397672,-8.4178266612712989],[118.0918413932659,-8.4187803032683135],[118.09277039563743,-8.4190299973363913],[118.0936645573736,-8.4195086030395547],[118.09463004973712,-8.4200827077506819],[118.09522465989026,-8.4205161827755468],[118.09599914794239,-8.420620234336246],[118.09674894960449,-8.4207597479639276],[118.09776928982103,-8.4209669067972115],[118.09788544895434,-8.4209904906185198],[118.09868281665888,-8.4212943841284265],[118.09929363439393,-8.4219693127334931],[118.09935165415574,-8.422033422704267],[118.09994084229606,-8.4223745958108296],[118.10060416604948,-8.4228391702914145],[118.10109895325422,-8.4234050426085716],[118.10187289271995,-8.4244074800211628],[118.10243416590413,-8.4245814080055101],[118.10310098172499,-8.4248046071468288],[118.10378401412119,-8.4253463803310655],[118.10485251123453,-8.4259041947227633],[118.10614615362228,-8.4266332858973705],[118.10740885573433,-8.4275023736356101],[118.10827873667439,-8.4285577649288754],[118.10891608620865,-8.4289200918886973],[118.10949710041088,-8.4290955091503861],[118.11009357485864,-8.4295809443050267],[118.1106646182776,-8.4302592273813364],[118.11155562878935,-8.4304269248626671],[118.11233739235685,-8.4306286284084315],[118.11329059638412,-8.4308169410489313],[118.11477951666143,-8.4311110886058103],[118.1155942772541,-8.4312898018828264],[118.11609163741923,-8.4312470669984876],[118.11691604683824,-8.4316517960934849],[118.1177129837673,-8.431923596396814],[118.11878625538145,-8.4328282811002317],[118.11951923882204,-8.4334452762784089],[118.12025944022118,-8.4336568112127654],[118.12083808201204,-8.4339764986163956],[118.12184637221253,-8.4341263472530184],[118.12266110672488,-8.4339159571555893],[118.12370143707176,-8.4345738454065877],[118.12411239397193,-8.4353601010876726],[118.12484582527463,-8.4356346811954879],[118.12508184515116,-8.4360980352960322],[118.12519039781863,-8.4367215559549269],[118.12546507415404,-8.4370809322392049],[118.12580645680269,-8.4374012311818163],[118.1260127432937,-8.4375947769773276],[118.12614388872954,-8.4381717936932397],[118.12662467888582,-8.4379101359439268],[118.12669656079765,-8.4378779959727215],[118.12733226996829,-8.4375937526494305],[118.12769810068689,-8.4372231771079171],[118.12812148441901,-8.4370200589284501],[118.12827946832283,-8.4369444879976125],[118.12864091934307,-8.4367769541930304],[118.12894475979294,-8.4365070298754219],[118.12930400837344,-8.4354655313091449],[118.12959660999559,-8.4348352684328312],[118.1297727925804,-8.4346718930933751],[118.13031209622638,-8.434338410089472],[118.1307881874251,-8.4339840897937961],[118.13136941027018,-8.433402751835505],[118.13167511411528,-8.4329255409808184],[118.131524071179,-8.43210754282876],[118.13201809935595,-8.4312237187995098],[118.13218208623437,-8.430334742554292],[118.13249569422112,-8.4294346812654926],[118.13264045719144,-8.4285191453422499],[118.13288922765594,-8.4276615311546923],[118.13334546632031,-8.4267095627960149],[118.13373425583131,-8.425850902696931],[118.13405884993618,-8.4248926669629931],[118.13444694786847,-8.4240093375607952],[118.13491241537588,-8.4231536479224474],[118.13537500864992,-8.4223003810576476],[118.13551132159023,-8.4214955633694402],[118.13619083763706,-8.4207989907807317],[118.1366469153229,-8.4200206599254646],[118.13689305167316,-8.4191141442022985],[118.13663722602722,-8.4186827969733624],[118.13653997334121,-8.4176549959812537],[118.13590054817188,-8.4170979010472156],[118.13644633682918,-8.4161742748228292],[118.13691221532656,-8.415956145159905],[118.13703300506914,-8.4147170376610347],[118.13741918744573,-8.413833306261953],[118.13780523222592,-8.4129031212820067],[118.13795793171323,-8.4119426417394081],[118.13835961480449,-8.4110433799479019],[118.13871487219365,-8.4102216747903658],[118.13908549719815,-8.4093379865587963],[118.1395797969701,-8.4082061897638081],[118.14007567775047,-8.4076163442188019],[118.14077334571334,-8.4069020361000568],[118.14106666679346,-8.4061734161701409],[118.14178064935753,-8.4057222964467027],[118.14247713201416,-8.4046053951228075],[118.14314373469563,-8.4039066587652709],[118.14391954744929,-8.4033314811628124],[118.14460210410401,-8.4027720569848192],[118.14523769096682,-8.402104376915366],[118.14590433141984,-8.4014211223868625],[118.14649335498439,-8.4007845462696729],[118.14734713176483,-8.4002865565792604],[118.14795156611206,-8.3996034810157383],[118.14858723391376,-8.3989667664030847],[118.14923803910438,-8.3981906469806606],[118.14985774304047,-8.3974146165911705],[118.15057110597195,-8.396762189023768],[118.1511606628344,-8.3963114191365626],[118.15207598202095,-8.3955964599086368],[118.15292969405017,-8.3950829775972196],[118.15350378886899,-8.3946632190322212],[118.15420223114823,-8.3942276099161823],[118.15488374998517,-8.3933275189497163],[118.15564319507746,-8.3924891349654942],[118.15606092027529,-8.3917756281426268],[118.15694539541379,-8.3911536579148525],[118.15761195043139,-8.3904549035709106],[118.15823194574773,-8.3897872549777546],[118.15889872469643,-8.3891659196713633],[118.16018567522896,-8.3879388702825928],[118.16064952935234,-8.3870548960665605],[118.16102040796557,-8.3862795860340498],[118.16162479734658,-8.3855964951820354],[118.16218285905187,-8.385021929118686],[118.16292769106018,-8.3845087498788704],[118.16370348043142,-8.3839490262265599],[118.16438509819386,-8.3830953762505427],[118.16492705034329,-8.3823350426280872],[118.16503349499999,-8.3815295423543805],[118.16604107833314,-8.3804891148806213],[118.16614756705678,-8.3796990991340916],[118.16656470589669,-8.3787997743900196],[118.16705889595131,-8.3776679569106118],[118.16732216078913,-8.3773110393728984],[118.16783305035516,-8.3765662793102855],[118.16820367625881,-8.3757135448441229],[118.16860521276044,-8.374798781438594],[118.16881998165694,-8.3738226321086717],[118.16915964480188,-8.373016441155805],[118.16921888224579,-8.3720252677518321],[118.16993184407956,-8.3712644251130044],[118.1703647480349,-8.3704424744406118],[118.17076678366016,-8.3696980354359258],[118.17126201692862,-8.3689223512854571],[118.17211573705174,-8.3684398056524909],[118.17293780283741,-8.367771541923041],[118.17355871186521,-8.3674290441150596],[118.17436517801059,-8.3667453390260658],[118.17517164055891,-8.3660616330378783],[118.17583830799161,-8.3654247943187077],[118.17655129140906,-8.3646794272136713],[118.17724900343887,-8.3640270104380718],[118.17769887400402,-8.3636850162504217],[118.17877010595568,-8.3631553578334845],[118.17953079481039,-8.362765982863781],[118.18018297236644,-8.3624853197416069],[118.18102181590415,-8.3622350680938737],[118.1819381198485,-8.3618916772589937],[118.18274642600682,-8.3618273235720721],[118.18377287981468,-8.3616035677503664],[118.1828694415715,-8.3604021508384623],[118.1825272432377,-8.3597905650823936],[118.18274733612076,-8.3591108098158848],[118.18373752926378,-8.3588193692184003],[118.18468822867897,-8.3586609662304951],[118.18545223603199,-8.3583394514044436],[118.18649771229968,-8.358166904778777],[118.18757328977563,-8.357160110150911],[118.18801323542266,-8.3560843743942392],[118.18777126203419,-8.3556128121815014],[118.18832824275421,-8.3545662882035501],[118.18824302479597,-8.3537302622417613],[118.18818659593478,-8.3527811510291983],[118.18909469266612,-8.3523713578517729],[118.18956377364943,-8.3519808344478292],[118.19006288569368,-8.3515791315715617],[118.19052485483826,-8.3511915759304411],[118.19180599485082,-8.3514563417367089],[118.1925314671537,-8.3515017089366701],[118.19334836903204,-8.3516868289838637],[118.19421014798002,-8.351465822389688],[118.19501989665093,-8.3510848183096886],[118.19574611179372,-8.3507988500867949],[118.19685711266584,-8.3505221817532007],[118.19813349076821,-8.3503633183124233],[118.19867559040631,-8.35009049008403],[118.19916344113996,-8.3497135185639895],[118.19990555809522,-8.3490468196549745],[118.20029156600299,-8.3488646988467448],[118.20131323901479,-8.3487327062493346],[118.20205780122673,-8.3483447791880998],[118.20284578990139,-8.3477630167496866],[118.20393519805098,-8.3478056850842624],[118.20487977128448,-8.347753092730958],[118.20565038235941,-8.3474759270722494],[118.20650311862424,-8.3470636256857365],[118.20718889215381,-8.3464294984225944],[118.20780909521376,-8.346052829074786],[118.20834973075557,-8.3453325152832996],[118.20878421212183,-8.3448706342722936],[118.20907003825185,-8.3441663437017084],[118.2092792349488,-8.3433736623645238],[118.20969474781452,-8.3427329403728585],[118.2109765146546,-8.3425016752120822],[118.21239845072797,-8.3422260968568462],[118.2130069931784,-8.3419323503976077],[118.21354640564219,-8.341211799185098],[118.21385373096497,-8.3407695162001136],[118.21402014241573,-8.3405300294372733],[118.21452671613507,-8.3398913578997238],[118.21446146582399,-8.3395886928638507],[118.21437569927924,-8.3390980794127341],[118.21397726543863,-8.3387036889240491],[118.21303251324004,-8.3382615183542761],[118.21234821369923,-8.3378390600245229],[118.21165316006532,-8.3372216376683372],[118.21088723355899,-8.3366752356735034],[118.21031615866389,-8.3359158211581512],[118.20992227089631,-8.3349788525918616],[118.20949305685916,-8.3341127955689558],[118.20908210805304,-8.3334059940912724],[118.20849332280864,-8.3326643321931275],[118.20777810907258,-8.332121448346129],[118.20696852677611,-8.3316718817518396],[118.20637295884514,-8.3312367708602455],[118.20605762775733,-8.3302922147138876],[118.20570217521525,-8.3296802242628516],[118.20528394010181,-8.3287865301741615],[118.20468235930353,-8.3283153133009957],[118.20419809866335,-8.3274868794158525],[118.20352361162543,-8.3268649343691052],[118.20292414963002,-8.3262150932518573],[118.20211412126967,-8.3257082533331737],[118.20139589120743,-8.3250682022356273],[118.20101708327184,-8.3243072876511555],[118.20047506097545,-8.3236340290871418],[118.19970344895511,-8.3231996403510422],[118.19899062381829,-8.322599104564981],[118.19811353571127,-8.3220818945636612],[118.19791876234103,-8.3212566505738916],[118.19738755439234,-8.3205672689642185],[118.196595964832,-8.3200724961487253],[118.19579822930497,-8.3194079070491416],[118.19517264739989,-8.3191704167812226],[118.19466693972753,-8.318836816865538],[118.19410002869347,-8.3181323734102577],[118.19345993532784,-8.3170690905660063],[118.19284546904341,-8.3165323481892912],[118.19202672715187,-8.3159962155527793],[118.1911366105662,-8.3156996677054682],[118.19058158317364,-8.3149473065728348],[118.19002701623388,-8.3142629557706851],[118.18941829841594,-8.3135948125504964],[118.18862952373354,-8.3131578535520649],[118.18785491607161,-8.3126720056085368],[118.18714973876945,-8.3119636060355351],[118.18667697955902,-8.3112008289550037],[118.18605004867084,-8.3105085191527373],[118.1858036847924,-8.3098240640292129],[118.18533174486437,-8.3089376922206437],[118.18465118110714,-8.3084216936062454],[118.18408278799029,-8.3076419049498398],[118.18367094615748,-8.3069293037442513],[118.18352534591804,-8.3060756708554209],[118.18304255027351,-8.3053589867278141],[118.18239397180446,-8.3047327546128713],[118.18158287594918,-8.3040383745712987],[118.18157967166461,-8.3040361127763145],[118.18082424834041,-8.3035027770314951],[118.17952427832292,-8.3031744228612183],[118.17926049097889,-8.3023541035589741],[118.17897822706357,-8.3014050283193299],[118.17895613341896,-8.3013534009386358],[118.17860329430675,-8.3005289285671395],[118.17844720977108,-8.2996037186366589],[118.17793906673454,-8.2987750833033314],[118.17775937499528,-8.2978630628300643],[118.17758644885555,-8.2970449693498338],[118.17735494087799,-8.2959684718673596],[118.17717597489138,-8.2949966239949617],[118.17666395038113,-8.2939238685916088],[118.17644549426427,-8.2931944239834277],[118.17652654386495,-8.2921648801050232],[118.17613074863526,-8.2914014204391098],[118.17606343707804,-8.2899759770097017],[118.17594143055261,-8.2893539654130493],[118.17555469059664,-8.2886010790765052],[118.17527778214402,-8.2877342090664055],[118.1747664330245,-8.2869311702371995],[118.17421385718399,-8.2862112890197199],[118.17361762555299,-8.285488054230262],[118.17316244269274,-8.284484775052313],[118.17256074498255,-8.2838583163082316],[118.17168883786964,-8.2829862832903185],[118.17127466139662,-8.2824114753092815],[118.17075816275918,-8.2814613586546599],[118.1700404210287,-8.2807897539439033],[118.1693406666385,-8.2798223379305131],[118.16866580818066,-8.2788408430303644],[118.16819384307155,-8.2780064493380721],[118.16775889315852,-8.2771938471182658],[118.16728790831043,-8.2763841488093721],[118.16687392699019,-8.2757728058702522],[118.1664630861027,-8.2749690871535844],[118.16607950726358,-8.274050978269992],[118.16539270490944,-8.2733947007048325],[118.16472979484422,-8.2726904775834065],[118.16374265310117,-8.2720470414376983],[118.16300286988655,-8.2715629669572781],[118.16228025922669,-8.2709268962591427],[118.16171856605899,-8.2701618663770073],[118.16115649877348,-8.2696399322370038],[118.16046458287428,-8.2686574435860436],[118.1598792492281,-8.2679106510556792],[118.1593527150559,-8.2673308419447356],[118.15887226574252,-8.2664957162042558],[118.15849028230083,-8.2656567476607314],[118.15819418681247,-8.2647023646223463],[118.15757880591718,-8.2638064878789734],[118.15694541879611,-8.2631576998679233],[118.15651709778605,-8.2623014931193115],[118.15599226962763,-8.2613756428715455],[118.15522697714334,-8.2607492767576129],[118.15445542088105,-8.2602476942756216],[118.15396027124973,-8.2589815495588272],[118.15312923382726,-8.2582897550681142],[118.15240685339371,-8.2577771765754093],[118.15182036771591,-8.2570183906860901],[118.15122545089399,-8.256416131798975],[118.15066371725696,-8.2556300838612042],[118.15008985985924,-8.254726929803903],[118.14940000070953,-8.2540119274084898],[118.14895530034697,-8.2535143981708678],[118.14821457644166,-8.2528770522341173],[118.1473444346981,-8.2521783401582542],[118.14685052433232,-8.251724938854748],[118.14613934855221,-8.2509250629412332],[118.1453693463185,-8.2505562302857332],[118.14476644621459,-8.2498039168171928],[118.144211192193,-8.2489078404244562],[118.14332184003094,-8.2488146265936813],[118.14222738218803,-8.2484227757904005],[118.14139772612418,-8.248197731240225],[118.14041157183668,-8.2478654101605002],[118.1389823557513,-8.2480490067562151],[118.13830957562651,-8.2480628859933631],[118.13744404830436,-8.2478977785595458],[118.13716981983133,-8.2479575151270978],[118.13560695010085,-8.2482979597829242],[118.13464554515588,-8.2482169002896626],[118.13361167823655,-8.2480043850941964],[118.13274645758314,-8.2479469867638997],[118.13184567144062,-8.2480572508413257],[118.13068015636428,-8.2480246342294681],[118.12967154240791,-8.2482429176764089],[118.12877010785439,-8.2481257683894533],[118.12817976408496,-8.2475529227290831],[118.12728878594874,-8.2468851707139983],[118.12619474898848,-8.2466368975747191],[118.12531727956889,-8.2464957345903827],[118.12456796264144,-8.2464166913770764],[118.12492272810164,-8.2457365089326835],[118.12489624036925,-8.2448124924025006],[118.1249499379893,-8.2441543172678884],[118.12550982441894,-8.2436830131604815],[118.12595248961576,-8.2429161261782227],[118.12620070160129,-8.2424075307828808],[118.12677638372317,-8.2413600939930856],[118.12728003284735,-8.2407153969978779],[118.12763480730051,-8.2402659203359008],[118.12838881419248,-8.2397763420044665],[118.12912695074829,-8.2393107935582108],[118.12915708702998,-8.2392917872861062],[118.12968943981582,-8.2389755658695716],[118.13020626760533,-8.2382111799020166],[118.13069162002228,-8.2375842571077591],[118.13113700386977,-8.2372047018354859],[118.13203015386853,-8.2360075962735166],[118.13263161325834,-8.2353499571347601],[118.1331302684473,-8.2346151022051153],[118.13389605375994,-8.2340597339694472],[118.13444083787454,-8.2325014058151815],[118.13503248206347,-8.2318435211615295],[118.13533595199259,-8.2313949078485891],[118.1358104900621,-8.2310244905877461],[118.136426512174,-8.230353151176919],[118.1370914556062,-8.2296164661269238],[118.13774066539952,-8.2285832808936465],[118.13879676715727,-8.2274324589407666],[118.13918698389239,-8.2268784190037536],[118.14010916400673,-8.225944391220656],[118.14082862434155,-8.2252930095646022],[118.14154941207573,-8.2245672845524549],[118.1422794574312,-8.2237466639772396],[118.14292378210691,-8.2230444868135422],[118.1435629653587,-8.2223226091010666],[118.14435223376859,-8.2214545178116545],[118.14501715831523,-8.2204677645756306],[118.1456114887792,-8.2195875666128497],[118.14624386416313,-8.2186796758263085],[118.14688704310277,-8.2180260629523296],[118.14759921533164,-8.217090449664445],[118.14849892858275,-8.2157448921130349],[118.14938009781351,-8.2143291172948327],[118.14992873282483,-8.2132534301016449],[118.1505242980579,-8.2120207896276689],[118.15102115819992,-8.2112820370363089]]]},"properties":{"FID":0,"OBJECTID":310,"id_prov":52,"Provinsi":"Nusa Tenggara Barat","id_fungsi":"10024","Fungsi":"TN","Nama":"TN Gunung Tambora","Penunjukan":"598/Menhut-II/2009 2 Oktober 2009","Penetapan":"SK.2842/Menhut-VII/KUH/2014 16 April 2014","id_pulau":5,"Pulau":"Bali Nustra","Luas_Ha":80382.952149999997,"Keterangan":" ","NGARAN":"Gunung Tambora","Ar_Ha":78724.111754900005,"SK_Ha":71645.639999999999}}]}